[
    {
        "Altitude(m)": 604221.1938232421,
        "Argument of Periapsis(deg)": 0.0,
        "Eccentricity": 0.0,
        "Inclination(deg)": 60.0,
        "Latitude(deg)": 14.117185953439206,
        "Longitude(deg)": -56.66586305271222,
        "Mean Anomaly(deg)": 16.363599999999998,
        "RAAN(deg)": 35.0,
        "Satellite Name": "Test1 155",
        "Satellite Number": 155,
        "Semi-Major Axis(m)": 6980739.136638005,
        "Time(s)": 0
    },
    {
        "Altitude(m)": 604235.3344349064,
        "Argument of Periapsis(deg)": 0.00010418945913296404,
        "Eccentricity": 0.0,
        "Inclination(deg)": 60.0,
        "Latitude(deg)": 14.651583062560443,
        "Longitude(deg)": -56.37741685232532,
        "Mean Anomaly(deg)": 16.98370614546183,
        "RAAN(deg)": 34.99957995086025,
        "Satellite Name": "Test1 155",
        "Satellite Number": 155,
        "Semi-Major Axis(m)": 6980739.136638005,
        "Time(s)": 10
    }
]